OBJECT_NAME,OBJECT_ID,EPOCH,MEAN_MOTION,ECCENTRICITY,INCLINATION,RA_OF_ASC_NODE,ARG_OF_PERICENTER,MEAN_ANOMALY,EPHEMERIS_TYPE,CLASSIFICATION_TYPE,NORAD_CAT_ID,ELEMENT_SET_NO,REV_AT_EPOCH,BSTAR,MEAN_MOTION_DOT,MEAN_MOTION_DDOT
SL-12 R/B(2),1985-042D,2026-06-09T11:57:38.310048,14.22004575,.0035861,71.1084,253.7604,339.4676,100.8845,0,U,15772,999,12744,.1636E-4,-.11E-6,0
SL-14 R/B,1985-069B,2026-06-09T08:39:37.630944,14.86509389,.0017354,82.5265,298.7268,246.9029,113.0359,0,U,15945,999,18645,.43186E-4,.407E-5,0
SL-16 R/B,1985-097B,2026-06-09T12:02:26.428128,14.16612197,.0005562,71.0038,307.2583,126.9759,301.4674,0,U,16182,999,10023,-.43594E-4,-.135E-5,0
SL-14 R/B,1986-006B,2026-06-09T10:44:15.112032,14.86937763,.0075524,82.5261,173.3969,329.5282,30.1555,0,U,16496,999,16284,.55848E-4,.551E-5,0
COSMOS 1743,1986-034A,2026-06-09T11:33:47.405088,15.66250019,.0003608,82.5281,336.9223,308.1627,51.9307,0,U,16719,999,19458,.42391E-3,.43866E-3,0
SL-14 R/B,1986-046B,2026-06-09T11:23:45.230784,14.85665866,.0021612,82.4816,353.4639,285.7615,74.1217,0,U,16792,999,14003,.39256E-4,.365E-5,0
SL-14 R/B,1986-055B,2026-06-09T10:07:19.994880,14.85717700,.0019727,82.5210,40.4340,32.7302,144.6481,0,U,16882,999,13298,.37886E-4,.354E-5,0
AJISAI (EGS),1986-061A,2026-06-09T12:27:50.398848,12.44516736,.0011257,50.0060,170.9742,161.1096,326.6729,0,U,16908,999,47943,.10026E-3,-.83E-6,0
SL-14 R/B,1987-024B,2026-06-09T01:42:09.821664,14.86207750,.0017273,82.5282,6.8801,322.0964,37.9036,0,U,17567,999,10170,.34718422E-4,.33E-5,0
COSMOS 1833,1987-027A,2026-06-09T07:42:49.811040,14.13044058,.00226,70.9160,133.4022,68.0974,292.2547,0,U,17589,999,2326,.19624E-3,.319E-5,0
SL-16 R/B,1987-027B,2026-06-09T10:50:41.324352,14.17172228,.0006154,71.0033,83.1286,321.5182,38.5502,0,U,17590,999,2834,.76409E-4,.106E-5,0
SL-14 R/B,1987-038B,2026-06-09T09:10:31.317024,14.85440581,.0018238,82.5014,210.4238,217.8835,142.1099,0,U,17912,999,9284,.31231E-4,.294E-5,0
COSMOS 1844,1987-041A,2026-06-09T11:16:50.173824,14.14569584,.003322,70.8981,200.5855,246.6929,113.0696,0,U,17973,999,1656,-.58474E-4,-.162E-5,0
SL-14 R/B,1987-055B,2026-06-09T08:14:13.994592,14.85705472,.002205,82.4996,262.6230,72.0595,288.3022,0,U,18153,999,8354,.40746E-4,.38E-5,0
COSMOS 1867,1987-060A,2026-06-09T09:05:16.333728,14.31514950,.0016353,65.0115,49.9271,282.0912,77.8340,0,U,18187,999,3306,.14691E-4,-.61E-6,0
SL-14 R/B,1988-001B,2026-06-09T08:16:20.114400,14.85603870,.0016626,82.5126,109.1514,297.9151,62.0381,0,U,18749,999,5563,.44629E-4,.411E-5,0
COSMOS 1933,1988-020A,2026-06-09T11:02:55.931712,15.18665972,.0002741,82.5123,160.0870,218.3687,141.7352,0,U,18958,999,6415,.14992E-3,.3136E-4,0
SL-3 R/B,1988-032B,2026-06-09T11:29:59.345376,15.20782629,.0023653,97.5251,143.5280,273.9806,85.8725,0,U,19046,999,6605,.16601E-3,.3612E-4,0
SL-16 R/B,1988-039B,2026-06-09T12:15:45.785376,14.19629365,.0022674,71.0146,234.3895,204.4580,155.5472,0,U,19120,999,97141,.42619E-4,.42E-6,0
COSMOS 1953,1988-050A,2026-06-08T18:39:53.993664,15.29860438,.00114463,82.5077,66.5128,152.4135,207.7715,0,U,19210,999,5170,.26229463E-3,.763E-4,0
SL-8 R/B,1988-053B,2026-06-09T11:57:41.808384,14.38964688,.0019202,74.0479,303.2304,101.4113,326.1216,0,U,19257,999,98980,.74133E-4,.203E-5,0
COSMOS 1975,1988-093A,2026-06-09T08:49:44.018976,15.29226254,.0010543,82.5203,25.5671,199.1998,160.8846,0,U,19573,999,3341,.24241E-3,.6916E-4,0
SL-14 R/B,1988-093B,2026-06-09T11:00:57.560256,14.85735832,.00222,82.5305,315.9008,94.2660,319.8830,0,U,19574,999,1464,.45822E-4,.424E-5,0
SL-16 R/B,1988-102B,2026-06-09T10:44:13.027200,14.16166514,.0016075,71.0004,318.4250,236.1887,123.7707,0,U,19650,999,93988,-.42823E-4,-.133E-5,0
INTERCOSMOS 24,1989-080A,2026-06-09T09:24:15.604128,12.59649045,.1188381,82.6074,44.7166,79.9768,293.3043,0,U,20261,999,67834,.22805E-3,.807E-5,0
SL-14 R/B,1989-080C,2026-06-09T07:44:38.370912,12.50565697,.1229194,82.5922,114.3599,335.3968,19.2909,0,U,20262,999,67160,.11652E-3,.391E-5,0
DELTA 1 R/B,1989-089B,2026-06-09T11:51:46.346688,14.50726201,.0068564,97.0640,353.2836,191.2612,168.7056,0,U,20323,999,90904,.84914E-4,.309E-5,0
ARIANE 40 R/B,1990-005H,2026-06-09T09:37:23.791584,14.39923317,.0008839,98.2962,218.2587,291.2848,68.7397,0,U,20443,999,90600,.80441E-4,.211E-5,0
DELTA 2 R/B(1),1990-008B,2026-06-09T01:00:21.341952,15.67552285,.00670071,35.6033,290.1009,36.7622,323.7688,0,U,20453,999,94042,.51791352E-3,.66682E-3,0
COSMOS 2058,1990-010A,2026-06-09T11:00:23.464224,15.11960067,.0010194,82.4661,316.9777,27.1179,333.0581,0,U,20465,999,95610,.17309E-3,.2999E-4,0
SL-14 R/B,1990-010B,2026-06-09T11:30:16.151904,14.83641344,.0019778,82.5016,181.1837,2.0835,358.0459,0,U,20466,999,94209,.38624E-4,.343E-5,0
