SL-12 R/B(2)            
1 15772U 85042D   26160.49836007 -.00000011  00000+0  16360-4 0  9995
2 15772  71.1084 253.7604 0035861 339.4676 100.8845 14.22004575127447
SL-14 R/B               
1 15945U 85069B   26160.36085221  .00000407  00000+0  43186-4 0  9990
2 15945  82.5265 298.7268 0017354 246.9029 113.0359 14.86509389186457
SL-16 R/B               
1 16182U 85097B   26160.50169477 -.00000135  00000+0 -43594-4 0  9990
2 16182  71.0038 307.2583 0005562 126.9759 301.4674 14.16612197100233
SL-14 R/B               
1 16496U 86006B   26160.44739713  .00000551  00000+0  55848-4 0  9993
2 16496  82.5261 173.3969 0075524 329.5282  30.1555 14.86937763162848
COSMOS 1743             
1 16719U 86034A   26160.48179867  .00043866  00000+0  42391-3 0  9998
2 16719  82.5281 336.9223 0003608 308.1627  51.9307 15.66250019194581
SL-14 R/B               
1 16792U 86046B   26160.47482906  .00000365  00000+0  39256-4 0  9996
2 16792  82.4816 353.4639 0021612 285.7615  74.1217 14.85665866140030
SL-14 R/B               
1 16882U 86055B   26160.42175920  .00000354  00000+0  37886-4 0  9991
2 16882  82.5210  40.4340 0019727  32.7302 144.6481 14.85717700132984
AJISAI (EGS)            
1 16908U 86061A   26160.51933332 -.00000083  00000+0  10026-3 0  9992
2 16908  50.0060 170.9742 0011257 161.1096 326.6729 12.44516736479438
SL-14 R/B               
1 17567U 87024B   26160.07094701  .00000330  00000+0  34718-4 0  9992
2 17567  82.5282   6.8801 0017273 322.0964  37.9036 14.86207750101701
COSMOS 1833             
1 17589U 87027A   26160.32140985  .00000319  00000+0  19624-3 0  9998
2 17589  70.9160 133.4022 0022600  68.0974 292.2547 14.13044058 23268
SL-16 R/B               
1 17590U 87027B   26160.45186718  .00000106  00000+0  76409-4 0  9997
2 17590  71.0033  83.1286 0006154 321.5182  38.5502 14.17172228 28349
SL-14 R/B               
1 17912U 87038B   26160.38230691  .00000294  00000+0  31231-4 0  9991
2 17912  82.5014 210.4238 0018238 217.8835 142.1099 14.85440581 92847
COSMOS 1844             
1 17973U 87041A   26160.47002516 -.00000162  00000+0 -58474-4 0  9999
2 17973  70.8981 200.5855 0033220 246.6929 113.0696 14.14569584 16566
SL-14 R/B               
1 18153U 87055B   26160.34321753  .00000380  00000+0  40746-4 0  9991
2 18153  82.4996 262.6230 0022050  72.0595 288.3022 14.85705472 83544
COSMOS 1867             
1 18187U 87060A   26160.37866127 -.00000061  00000+0  14691-4 0  9993
2 18187  65.0115  49.9271 0016353 282.0912  77.8340 14.31514950 33063
SL-14 R/B               
1 18749U 88001B   26160.34467725  .00000411  00000+0  44629-4 0  9993
2 18749  82.5126 109.1514 0016626 297.9151  62.0381 14.85603870 55632
COSMOS 1933             
1 18958U 88020A   26160.46036958  .00003136  00000+0  14992-3 0  9995
2 18958  82.5123 160.0870 0002741 218.3687 141.7352 15.18665972 64154
SL-3 R/B                
1 19046U 88032B   26160.47915909  .00003612  00000+0  16601-3 0  9998
2 19046  97.5251 143.5280 0023653 273.9806  85.8725 15.20782629 66052
SL-16 R/B               
1 19120U 88039B   26160.51094659  .00000042  00000+0  42619-4 0  9996
2 19120  71.0146 234.3895 0022674 204.4580 155.5472 14.19629365971419
COSMOS 1953             
1 19210U 88050A   26159.77770826  .00007630  00000+0  26229-3 0  9990
2 19210  82.5077  66.5128 0011446 152.4135 207.7715 15.29860438 51707
SL-8 R/B                
1 19257U 88053B   26160.49840056  .00000203  00000+0  74133-4 0  9995
2 19257  74.0479 303.2304 0019202 101.4113 326.1216 14.38964688989809
COSMOS 1975             
1 19573U 88093A   26160.36787059  .00006916  00000+0  24241-3 0  9990
2 19573  82.5203  25.5671 0010543 199.1998 160.8846 15.29226254 33414
SL-14 R/B               
1 19574U 88093B   26160.45899954  .00000424  00000+0  45822-4 0  9996
2 19574  82.5305 315.9008 0022200  94.2660 319.8830 14.85735832 14643
SL-16 R/B               
1 19650U 88102B   26160.44737300 -.00000133  00000+0 -42823-4 0  9994
2 19650  71.0004 318.4250 0016075 236.1887 123.7707 14.16166514939881
INTERCOSMOS 24          
1 20261U 89080A   26160.39184727  .00000807  00000+0  22805-3 0  9996
2 20261  82.6074  44.7166 1188381  79.9768 293.3043 12.59649045678341
SL-14 R/B               
1 20262U 89080C   26160.32266633  .00000391  00000+0  11652-3 0  9993
2 20262  82.5922 114.3599 1229194 335.3968  19.2909 12.50565697671605
DELTA 1 R/B             
1 20323U 89089B   26160.49428642  .00000309  00000+0  84914-4 0  9999
2 20323  97.0640 353.2836 0068564 191.2612 168.7056 14.50726201909042
ARIANE 40 R/B           
1 20443U 90005H   26160.40096981  .00000211  00000+0  80441-4 0  9993
2 20443  98.2962 218.2587 0008839 291.2848  68.7397 14.39923317906003
DELTA 2 R/B(1)          
1 20453U 90008B   26160.04191368  .00066682  00000+0  51791-3 0  9991
2 20453  35.6033 290.1009 0067007  36.7622 323.7688 15.67552285940425
COSMOS 2058             
1 20465U 90010A   26160.45860491  .00002999  00000+0  17309-3 0  9990
2 20465  82.4661 316.9777 0010194  27.1179 333.0581 15.11960067956108
SL-14 R/B               
1 20466U 90010B   26160.47935361  .00000343  00000+0  38624-4 0  9997
2 20466  82.5016 181.1837 0019778   2.0835 358.0459 14.83641344942097
